[{"name":"BRITE-AUSTRIA","l1":"1 39091U 13009F   26183.74046976  .00000212  00000+0  86788-4 0  9993","l2":"2 39091  98.4001   2.7917 0009969 186.9933 173.1116 14.36548421699286","cat":"science"},{"name":"BRITE-CA1 (TORONTO)","l1":"1 40020U 14033L   26183.59702272  .00001152  00000+0  18040-3 0  9995","l2":"2 40020  97.9759 312.2426 0077603 226.8808 132.5892 14.72702923644484","cat":"science"},{"name":"CUTE-1 (CO-55)","l1":"1 27844U 03031E   26182.99996152  .00000303  00000+0  15002-3 0  9997","l2":"2 27844  98.6736 191.3725 0010408 137.1021 223.0971 14.24344824193780","cat":"other"},{"name":"CUBESAT XI-IV (CO-57)","l1":"1 27848U 03031J   26183.76896903  .00000279  00000+0  14166-3 0  9992","l2":"2 27848  98.6769 191.8320 0009990 152.4134 207.7577 14.23629228193598","cat":"other"},{"name":"CUBESAT XI-V","l1":"1 28895U 05043F   26183.69034545  .00001723  00000+0  27823-3 0  9997","l2":"2 28895  98.3002 339.6391 0014699 152.1460 208.0536 14.72675255104034","cat":"other"},{"name":"CUTE-1.7+APD II (CO-65)","l1":"1 32785U 08021C   26183.89264118  .00007348  00000+0  46082-3 0  9999","l2":"2 32785  97.8286 165.6398 0008120 347.2751  12.8271 15.09606626987562","cat":"other"},{"name":"CANX-2","l1":"1 32790U 08021H   26183.70625624  .00004776  00000+0  33425-3 0  9997","l2":"2 32790  97.8637 163.7870 0010052   0.8570 359.2672 15.05726016987149","cat":"other"},{"name":"SEEDS II (CO-66)","l1":"1 32791U 08021J   26183.80114904  .00020103  00000+0  62654-3 0  9991","l2":"2 32791  97.7521 182.4499 0001504 186.8338 173.2883 15.33292646989682","cat":"other"},{"name":"SWISSCUBE","l1":"1 35932U 09051B   26183.28877764  .00001164  00000+0  23926-3 0  9992","l2":"2 35932  98.4025  91.4397 0007062 154.9157 205.2388 14.62510844891362","cat":"other"},{"name":"BEESAT-1","l1":"1 35933U 09051C   26183.30608929  .00000968  00000+0  20391-3 0  9995","l2":"2 35933  98.3950  91.0608 0005269 165.6666 194.4685 14.61745142891393","cat":"other"},{"name":"ITUPSAT1","l1":"1 35935U 09051E   26182.96766707  .00000816  00000+0  17832-3 0  9995","l2":"2 35935  98.4034  89.8935 0007122 182.8141 177.3019 14.60462418890892","cat":"other"},{"name":"TISAT 1","l1":"1 36799U 10035E   26183.79296906  .00022562  00000+0  72453-3 0  9991","l2":"2 36799  98.0713 131.7335 0003418 142.3895 217.7584 15.32310969870092","cat":"other"},{"name":"AEROCUBE 4.5A","l1":"1 38767U 12048K   26180.81601320  .02026816  74244-5  11805-2 0  9992","l2":"2 38767  64.6148 340.0554 0018867 267.4936  92.4076 16.17962819374686","cat":"science"},{"name":"STRAND-1","l1":"1 39090U 13009E   26183.44238219  .00000331  00000+0  12561-3 0  9991","l2":"2 39090  98.3927   3.3015 0008617 177.2756 182.8479 14.37172679699257","cat":"other"},{"name":"NEE-01 PEGASO","l1":"1 39151U 13018B   26183.33816390  .00003478  00000+0  33370-3 0  9995","l2":"2 39151  98.1242 327.9905 0013773 112.9357 247.3317 14.93736499712968","cat":"other"},{"name":"POPACS 2","l1":"1 39269U 13055E   26181.19306930  .00014049  00000+0  23497-3 0  9997","l2":"2 39269  80.9915 129.3032 0416257 152.0121 210.4183 14.91555130665156","cat":"other"},{"name":"POPACS 3","l1":"1 39270U 13055F   26183.50963921  .00010225  00000+0  24146-3 0  9999","l2":"2 39270  80.9993 212.5717 0550469  23.3588 339.1609 14.56411128640783","cat":"other"},{"name":"ZACUBE-1 (TSHEPISOSAT)","l1":"1 39417U 13066B   26183.47106021  .00003928  00000+0  30455-3 0  9992","l2":"2 39417  97.8040 145.8855 0042932 196.1986 163.7868 15.01273353683028","cat":"other"},{"name":"WNISAT-1","l1":"1 39423U 13066H   26183.65191517  .00001475  00000+0  27566-3 0  9997","l2":"2 39423  97.7221 331.7119 0162977 182.6990 177.3349 14.58096043668984","cat":"other"},{"name":"TRITON-1","l1":"1 39427U 13066M   26183.76013453  .00001535  00000+0  18837-3 0  9993","l2":"2 39427  97.8239  93.2126 0089585 182.5901 177.4860 14.81754703676393","cat":"other"},{"name":"GOMX-1","l1":"1 39430U 13066Q   26183.64279913  .00001490  00000+0  22853-3 0  9992","l2":"2 39430  97.6468  23.1296 0129371  28.4265 332.3919 14.69510522672183","cat":"other"},{"name":"CUBEBUG-2 (LO-74)","l1":"1 39440U 13066AA  26183.80423823  .00005629  00000+0  51857-3 0  9996","l2":"2 39440  97.8915 132.8497 0056650 337.4394  22.4336 14.93892803679324","cat":"other"},{"name":"NEE-02 KRYSAOR","l1":"1 39441U 13066AB  26183.55500345  .00002950  00000+0  32516-3 0  9999","l2":"2 39441  97.8896 122.6607 0066609  20.7402 339.6493 14.86690645678485","cat":"other"},{"name":"FUNCUBE-1 (AO-73)","l1":"1 39444U 13066AE  26183.43482957  .00007511  00000+0  46292-3 0  9991","l2":"2 39444  97.8285 155.2011 0037288 149.2742 211.0681 15.09675808681965","cat":"other"},{"name":"UWE-3","l1":"1 39446U 13066AG  26183.58834462  .00003508  00000+0  30245-3 0  9994","l2":"2 39446  97.8709 139.7682 0047193 268.5027  91.0788 14.97137588679882","cat":"other"},{"name":"DUCHIFAT-1","l1":"1 40021U 14033M   26183.10087887  .00143832  00000+0  12875-2 0  9992","l2":"2 40021  98.0445 244.3920 0000096 180.5510 179.5749 15.67889029658082","cat":"other"},{"name":"NANOSATC-BR1","l1":"1 40024U 14033Q   26183.55769088  .00018089  00000+0  58807-3 0  9995","l2":"2 40024  98.0706 217.3122 0005206 125.7941 234.3783 15.31958906656332","cat":"other"},{"name":"QB50P1","l1":"1 40025U 14033R   26183.76871566  .00009620  00000+0  46935-3 0  9994","l2":"2 40025  98.0961 196.0094 0009438 162.0321 198.1247 15.18500631655394","cat":"other"},{"name":"QB50P2","l1":"1 40032U 14033Y   26183.75085529  .00008472  00000+0  45245-3 0  9994","l2":"2 40032  98.0751 181.6017 0009163 118.5652 241.6502 15.15363125655022","cat":"other"},{"name":"PERSEUS-M2","l1":"1 40037U 14033AD  26183.78627256  .00001083  00000+0  10314-3 0  9991","l2":"2 40037  97.9971 134.6457 0010500 246.5167 113.4950 14.95553446653110","cat":"other"}]